{"fetched_at":"2026-03-29T16:36:15Z","count":15609,"tles":[{"name":"STARLINK-35329","line1":"1 65908U 25224AC  26087.81984781  .00025664  00000+0  87576-3 0  9990","line2":"2 65908  53.1587 282.4534 0001177  80.7551 279.3583 15.30194922 27797","category":"Starlink"}]}