{
  "norad_id": 65908,
  "name": "STARLINK-35329",
  "history": [
    {
      "epoch": "2026-03-28T19:40:34.850784Z",
      "apogee_km": 476.03735251278613,
      "perigee_km": 474.4231103950897,
      "latitude_deg": 1.0568419839030421e-05,
      "longitude_deg": 161.07338150378592,
      "height_km": 475.99864461815923,
      "semi_major_axis_km": 6853.367231453938,
      "eccentricity": 0.00011777,
      "inclination_deg": 53.1587,
      "raan_deg": 282.4534,
      "arg_perigee_deg": 80.7551,
      "mean_anomaly_deg": 279.3583,
      "mean_motion_rev_day": 15.30194922
    }
  ]
}